[{"OBJECT_NAME":"YAOGAN-30 09C","OBJECT_ID":"2021-039C","EPOCH":"2026-03-09T23:18:27.367776","MEAN_MOTION":15.02221245,"ECCENTRICITY":0.00033191,"INCLINATION":34.9945,"RA_OF_ASC_NODE":275.1705,"ARG_OF_PERICENTER":299.331,"MEAN_ANOMALY":60.7067,"EPHEMERIS_TYPE":0,"CLASSIFICATION_TYPE":"U","NORAD_CAT_ID":48425,"ELEMENT_SET_NO":999,"REV_AT_EPOCH":26462,"BSTAR":0.00027769734,"MEAN_MOTION_DOT":3.708e-5,"MEAN_MOTION_DDOT":0},{"OBJECT_NAME":"STARLINK-6038","OBJECT_ID":"2023-058A","EPOCH":"2026-03-09T22:22:49.720224","MEAN_MOTION":15.05647449,"ECCENTRICITY":0.00019937,"INCLINATION":97.6042,"RA_OF_ASC_NODE":71.4636,"ARG_OF_PERICENTER":91.5652,"MEAN_ANOMALY":268.5804,"EPHEMERIS_TYPE":0,"CLASSIFICATION_TYPE":"U","NORAD_CAT_ID":56317,"ELEMENT_SET_NO":999,"REV_AT_EPOCH":15788,"BSTAR":-3.59279e-6,"MEAN_MOTION_DOT":-1.13e-6,"MEAN_MOTION_DDOT":0}]
